ADRAS-J                 
1 58992U 24034A   24107.34593974  .00007507  00000+0  71035-3 0  9991
2 58992  98.2090  77.6166 0042407 251.3499 108.3113 14.93282717  8634
